{"type": "FeatureCollection", "features": [ {"type": "Feature", "properties": {"norad_id": 34117, "name": "COSMOS 2251 DEB", "group": "cosmos-2251-debris", "lat": 2.4419938422427867, "lon": -27.00779042712615, "alt_km": 732.5539790818684, "timestamp": "2025-12-18T23:35:49.456854+00:00", "meta": {"OBJECT_NAME": "COSMOS 2251 DEB", "OBJECT_ID": "1993-036KN", "EPOCH": "2025-12-18T15:14:56.140800", "MEAN_MOTION": 14.40034351, "ECCENTRICITY": 0.00547671, "INCLINATION": 74.04, "RA_OF_ASC_NODE": 332.9353, "ARG_OF_PERICENTER": 47.6023, "MEAN_ANOMALY": 312.9747, "EPHEMERIS_TYPE": 0, "CLASSIFICATION_TYPE": "U", "NORAD_CAT_ID": 34117, "ELEMENT_SET_NO": 999, "REV_AT_EPOCH": 88208, "BSTAR": 0.00050892702, "MEAN_MOTION_DOT": 1.607e-05, "MEAN_MOTION_DDOT": 0}, "tle": {"line1": "1 34117U 93036KN  25352.63537200  .00001607  00000+0  50893-3 0  9991", "line2": "2 34117  74.0400 332.9353 0054767  47.6023 312.9747 14.40034351882086"}}, "geometry": {"type": "Point", "coordinates": [-27.00779042712615, 2.4419938422427867]}}, {"type": "Feature", "properties": {"norad_id": 34118, "name": "COSMOS 2251 DEB", "group": "cosmos-2251-debris", "lat": -26.921902782341885, "lon": 65.07276359406333, "alt_km": 623.5234593076602, "timestamp": "2025-12-18T23:35:49.456864+00:00", "meta": {"OBJECT_NAME": "COSMOS 2251 DEB", "OBJECT_ID": "1993-036KP", "EPOCH": "2025-12-18T10:36:01.755072", "MEAN_MOTION": 14.94141634, "ECCENTRICITY": 0.00600046, "INCLINATION": 73.9521, "RA_OF_ASC_NODE": 237.7634, "ARG_OF_PERICENTER": 66.5905, "MEAN_ANOMALY": 109.3929, "EPHEMERIS_TYPE": 0, "CLASSIFICATION_TYPE": "U", "NORAD_CAT_ID": 34118, "ELEMENT_SET_NO": 999, "REV_AT_EPOCH": 89261, "BSTAR": 0.0013053783, "MEAN_MOTION_DOT": 0.00014465, "MEAN_MOTION_DDOT": 0}, "tle": {"line1": "1 34118U 93036KP  25352.44168698  .00014465  00000+0  13054-2 0  9995", "line2": "2 34118  73.9521 237.7634 0060004  66.5905 109.3929 14.94141634892615"}}, "geometry": {"type": "Point", "coordinates": [65.07276359406333, -26.921902782341885]}}, {"type": "Feature", "properties": {"norad_id": 34120, "name": "COSMOS 2251 DEB", "group": "cosmos-2251-debris", "lat": -73.83534433322122, "lon": 123.3107227804982, "alt_km": 968.762566630051, "timestamp": "2025-12-18T23:35:49.456875+00:00", "meta": {"OBJECT_NAME": "COSMOS 2251 DEB", "OBJECT_ID": "1993-036KR", "EPOCH": "2025-12-18T15:41:38.250816", "MEAN_MOTION": 13.98690391, "ECCENTRICITY": 0.01822133, "INCLINATION": 73.9905, "RA_OF_ASC_NODE": 205.9766, "ARG_OF_PERICENTER": 32.3469, "MEAN_ANOMALY": 24.2219, "EPHEMERIS_TYPE": 0, "CLASSIFICATION_TYPE": "U", "NORAD_CAT_ID": 34120, "ELEMENT_SET_NO": 999, "REV_AT_EPOCH": 86063, "BSTAR": 0.00028024143, "MEAN_MOTION_DOT": 4.41e-06, "MEAN_MOTION_DDOT": 0}, "tle": {"line1": "1 34120U 93036KR  25352.65391494  .00000441  00000+0  28024-3 0  9996", "line2": "2 34120  73.9905 205.9766 0182213  32.3469  24.2219 13.98690391860636"}}, "geometry": {"type": "Point", "coordinates": [123.3107227804982, -73.83534433322122]}}, {"type": "Feature", "properties": {"norad_id": 34121, "name": "COSMOS 2251 DEB", "group": "cosmos-2251-debris", "lat": -22.008454208795346, "lon": 79.80830454557027, "alt_km": 803.7737306936315, "timestamp": "2025-12-18T23:35:49.456885+00:00", "meta": {"OBJECT_NAME": "COSMOS 2251 DEB", "OBJECT_ID": "1993-036KS", "EPOCH": "2025-12-18T06:33:08.741376", "MEAN_MOTION": 13.91949154, "ECCENTRICITY": 0.02405913, "INCLINATION": 73.9924, "RA_OF_ASC_NODE": 87.688, "ARG_OF_PERICENTER": 291.969, "MEAN_ANOMALY": 85.7913, "EPHEMERIS_TYPE": 0, "CLASSIFICATION_TYPE": "U", "NORAD_CAT_ID": 34121, "ELEMENT_SET_NO": 999, "REV_AT_EPOCH": 85202, "BSTAR": 0.00098012123, "MEAN_MOTION_DOT": 1.558e-05, "MEAN_MOTION_DDOT": 0}, "tle": {"line1": "1 34121U 93036KS  25352.27301784  .00001558  00000+0  98012-3 0  9992", "line2": "2 34121  73.9924  87.6880 0240591 291.9690  85.7913 13.91949154852027"}}, "geometry": {"type": "Point", "coordinates": [79.80830454557027, -22.008454208795346]}}, {"type": "Feature", "properties": {"norad_id": 34122, "name": "COSMOS 2251 DEB", "group": "cosmos-2251-debris", "lat": 63.71808845341866, "lon": 142.0487057600081, "alt_km": 646.5031919827779, "timestamp": "2025-12-18T23:35:49.456896+00:00", "meta": {"OBJECT_NAME": "COSMOS 2251 DEB", "OBJECT_ID": "1993-036KT", "EPOCH": "2025-12-18T07:01:38.778816", "MEAN_MOTION": 14.65116089, "ECCENTRICITY": 0.00846266, "INCLINATION": 74.0359, "RA_OF_ASC_NODE": 107.95, "ARG_OF_PERICENTER": 3.2392, "MEAN_ANOMALY": 24.788, "EPHEMERIS_TYPE": 0, "CLASSIFICATION_TYPE": "U", "NORAD_CAT_ID": 34122, "ELEMENT_SET_NO": 999, "REV_AT_EPOCH": 88766, "BSTAR": 0.00088948439, "MEAN_MOTION_DOT": 5.008e-05, "MEAN_MOTION_DDOT": 0}, "tle": {"line1": "1 34122U 93036KT  25352.29280994  .00005008  00000+0  88948-3 0  9995", "line2": "2 34122  74.0359 107.9500 0084626   3.2392  24.7880 14.65116089887664"}}, "geometry": {"type": "Point", "coordinates": [142.0487057600081, 63.71808845341866]}}, {"type": "Feature", "properties": {"norad_id": 34127, "name": "COSMOS 2251 DEB", "group": "cosmos-2251-debris", "lat": -49.902172326718286, "lon": 12.901687239956228, "alt_km": 772.1839098730698, "timestamp": "2025-12-18T23:35:49.456906+00:00", "meta": {"OBJECT_NAME": "COSMOS 2251 DEB", "OBJECT_ID": "1993-036KY", "EPOCH": "2025-12-18T14:22:22.800864", "MEAN_MOTION": 14.31597296, "ECCENTRICITY": 0.0114958, "INCLINATION": 74.1793, "RA_OF_ASC_NODE": 33.2747, "ARG_OF_PERICENTER": 232.1614, "MEAN_ANOMALY": 254.0003, "EPHEMERIS_TYPE": 0, "CLASSIFICATION_TYPE": "U", "NORAD_CAT_ID": 34127, "ELEMENT_SET_NO": 999, "REV_AT_EPOCH": 86855, "BSTAR": 0.0012510289, "MEAN_MOTION_DOT": 3.557e-05, "MEAN_MOTION_DDOT": 0}, "tle": {"line1": "1 34127U 93036KY  25352.59887501  .00003557  00000+0  12510-2 0  9998", "line2": "2 34127  74.1793  33.2747 0114958 232.1614 254.0003 14.31597296868556"}}, "geometry": {"type": "Point", "coordinates": [12.901687239956228, -49.902172326718286]}}, {"type": "Feature", "properties": {"norad_id": 34128, "name": "COSMOS 2251 DEB", "group": "cosmos-2251-debris", "lat": -72.36671324899869, "lon": -140.54585066435052, "alt_km": 577.8097532171278, "timestamp": "2025-12-18T23:35:49.456917+00:00", "meta": {"OBJECT_NAME": "COSMOS 2251 DEB", "OBJECT_ID": "1993-036KZ", "EPOCH": "2025-12-18T13:32:50.222688", "MEAN_MOTION": 15.01386893, "ECCENTRICITY": 0.00261105, "INCLINATION": 73.9994, "RA_OF_ASC_NODE": 284.8334, "ARG_OF_PERICENTER": 35.8198, "MEAN_ANOMALY": 139.6098, "EPHEMERIS_TYPE": 0, "CLASSIFICATION_TYPE": "U", "NORAD_CAT_ID": 34128, "ELEMENT_SET_NO": 999, "REV_AT_EPOCH": 89254, "BSTAR": 0.0012698689, "MEAN_MOTION_DOT": 0.00016496, "MEAN_MOTION_DDOT": 0}, "tle": {"line1": "1 34128U 93036KZ  25352.56447017  .00016496  00000+0  12699-2 0  9994", "line2": "2 34128  73.9994 284.8334 0026110  35.8198 139.6098 15.01386893892545"}}, "geometry": {"type": "Point", "coordinates": [-140.54585066435052, -72.36671324899869]}}, {"type": "Feature", "properties": {"norad_id": 34129, "name": "COSMOS 2251 DEB", "group": "cosmos-2251-debris", "lat": -17.32473046408932, "lon": -37.81510898884688, "alt_km": 637.0946345629218, "timestamp": "2025-12-18T23:35:49.456927+00:00", "meta": {"OBJECT_NAME": "COSMOS 2251 DEB", "OBJECT_ID": "1993-036LA", "EPOCH": "2025-12-18T09:02:11.415264", "MEAN_MOTION": 14.75834585, "ECCENTRICITY": 0.00331651, "INCLINATION": 74.0348, "RA_OF_ASC_NODE": 328.4951, "ARG_OF_PERICENTER": 48.1918, "MEAN_ANOMALY": 312.208, "EPHEMERIS_TYPE": 0, "CLASSIFICATION_TYPE": "U", "NORAD_CAT_ID": 34129, "ELEMENT_SET_NO": 999, "REV_AT_EPOCH": 61381, "BSTAR": 0.0011762776, "MEAN_MOTION_DOT": 8.117e-05, "MEAN_MOTION_DDOT": 0}, "tle": {"line1": "1 34129U 93036LA  25352.37652101  .00008117  00000+0  11763-2 0  9998", "line2": "2 34129  74.0348 328.4951 0033165  48.1918 312.2080 14.75834585613813"}}, "geometry": {"type": "Point", "coordinates": [-37.81510898884688, -17.32473046408932]}}, {"type": "Feature", "properties": {"norad_id": 34136, "name": "COSMOS 2251 DEB", "group": "cosmos-2251-debris", "lat": -51.70082829980563, "lon": -128.40523207101901, "alt_km": 627.791272519481, "timestamp": "2025-12-18T23:35:49.456937+00:00", "meta": {"OBJECT_NAME": "COSMOS 2251 DEB", "OBJECT_ID": "1993-036LH", "EPOCH": "2025-12-18T13:29:26.234016", "MEAN_MOTION": 14.80117749, "ECCENTRICITY": 0.00853475, "INCLINATION": 74.0204, "RA_OF_ASC_NODE": 31.1496, "ARG_OF_PERICENTER": 152.5564, "MEAN_ANOMALY": 358.2497, "EPHEMERIS_TYPE": 0, "CLASSIFICATION_TYPE": "U", "NORAD_CAT_ID": 34136, "ELEMENT_SET_NO": 999, "REV_AT_EPOCH": 90096, "BSTAR": 0.00028114564, "MEAN_MOTION_DOT": 2.233e-05, "MEAN_MOTION_DDOT": 0}, "tle": {"line1": "1 34136U 93036LH  25352.56210919  .00002233  00000+0  28115-3 0  9997", "line2": "2 34136  74.0204  31.1496 0085347 152.5564 358.2497 14.80117749900969"}}, "geometry": {"type": "Point", "coordinates": [-128.40523207101901, -51.70082829980563]}}, {"type": "Feature", "properties": {"norad_id": 34139, "name": "COSMOS 2251 DEB", "group": "cosmos-2251-debris", "lat": -22.147253403180507, "lon": 68.85583177755103, "alt_km": 710.7439288812375, "timestamp": "2025-12-18T23:35:49.456948+00:00", "meta": {"OBJECT_NAME": "COSMOS 2251 DEB", "OBJECT_ID": "1993-036LL", "EPOCH": "2025-12-18T03:36:24.636096", "MEAN_MOTION": 14.59134472, "ECCENTRICITY": 0.00425462, "INCLINATION": 74.0311, "RA_OF_ASC_NODE": 243.7499, "ARG_OF_PERICENTER": 313.9668, "MEAN_ANOMALY": 195.9906, "EPHEMERIS_TYPE": 0, "CLASSIFICATION_TYPE": "U", "NORAD_CAT_ID": 34139, "ELEMENT_SET_NO": 999, "REV_AT_EPOCH": 88228, "BSTAR": 0.0010105781, "MEAN_MOTION_DOT": 4.792e-05, "MEAN_MOTION_DDOT": 0}, "tle": {"line1": "1 34139U 93036LL  25352.15028514  .00004792  00000+0  10106-2 0  9995", "line2": "2 34139  74.0311 243.7499 0042546 313.9668 195.9906 14.59134472882280"}}, "geometry": {"type": "Point", "coordinates": [68.85583177755103, -22.147253403180507]}}]}